FLOCK 4H-23             
1 66726U 25276BN  26068.76636885  .00008172  00000+0  39949-3 0  9994
2 66726  97.4304 144.0252 0004026   1.9610 358.1639 15.18478039 15325
ICEYE-X60               
1 66753U 25276CR  26068.76608885  .00004457  00000+0  22155-3 0  9996
2 66753  97.4272 143.9786 0003074  37.9944 322.1506 15.18150432 15328
