[{"OBJECT_NAME":"FLOCK 4H-23","OBJECT_ID":"2025-276BN","EPOCH":"2026-03-09T18:23:34.268640","MEAN_MOTION":15.18478039,"ECCENTRICITY":0.00040265,"INCLINATION":97.4304,"RA_OF_ASC_NODE":144.0252,"ARG_OF_PERICENTER":1.961,"MEAN_ANOMALY":358.1639,"EPHEMERIS_TYPE":0,"CLASSIFICATION_TYPE":"U","NORAD_CAT_ID":66726,"ELEMENT_SET_NO":999,"REV_AT_EPOCH":1532,"BSTAR":0.00039949076,"MEAN_MOTION_DOT":8.172e-5,"MEAN_MOTION_DDOT":0},{"OBJECT_NAME":"ICEYE-X60","OBJECT_ID":"2025-276CR","EPOCH":"2026-03-09T18:23:10.076640","MEAN_MOTION":15.18150432,"ECCENTRICITY":0.00030743,"INCLINATION":97.4272,"RA_OF_ASC_NODE":143.9786,"ARG_OF_PERICENTER":37.9944,"MEAN_ANOMALY":322.1506,"EPHEMERIS_TYPE":0,"CLASSIFICATION_TYPE":"U","NORAD_CAT_ID":66753,"ELEMENT_SET_NO":999,"REV_AT_EPOCH":1532,"BSTAR":0.00022155306,"MEAN_MOTION_DOT":4.457e-5,"MEAN_MOTION_DDOT":0}]
